{
  "norad_id": 66681,
  "name": "TRANSPORTER-15 OBJECT R",
  "history": [
    {
      "epoch": "2026-03-28T18:44:50.839872",
      "apogee_km": 504.34579202817986,
      "perigee_km": 498.8730913287536,
      "latitude_deg": 35.5310105781779,
      "longitude_deg": -156.91017792001367,
      "semi_major_axis_km": 6879.746441678467,
      "eccentricity": 0.00039774,
      "inclination_deg": 97.4167,
      "raan_deg": 162.7561,
      "arg_perigee_deg": 301.9516,
      "mean_anomaly_deg": 58.1332,
      "mean_motion_rev_day": 15.21402458
    },
    {
      "epoch": "2026-03-29T04:13:06.112416",
      "apogee_km": 504.32946097448075,
      "perigee_km": 498.7417908677089,
      "latitude_deg": 37.8885868193027,
      "longitude_deg": -119.02654175995849,
      "semi_major_axis_km": 6879.672625921095,
      "eccentricity": 0.0004061,
      "inclination_deg": 97.4168,
      "raan_deg": 163.1449,
      "arg_perigee_deg": 299.5318,
      "mean_anomaly_deg": 60.5512,
      "mean_motion_rev_day": 15.21426944
    }
  ]
}